STARLINK-34384          
1 64312U 25123X   26068.73366714  .00006108  00000+0  51922-3 0  9994
2 64312  70.0026 194.4036 0003996 269.0225  91.0476 14.98332101 41625
STRIX-5                 
1 65971U 25229A   26068.48916036  .00006129  00000+0  44900-3 0  9994
2 65971  41.9265 119.8574 0036941 120.2079 240.2413 15.03509399 21964
